STARLINK-31645          
1 59264U 24050L   26068.60313497  .00023883  00000+0  81612-3 0  9996
2 59264  53.1575 181.5135 0001194  83.4140 276.6997 15.30190773110535
KUIPER-00175            
1 67135U 25301C   26068.97960463  .00019968  00000+0  66732-3 0  9998
2 67135  51.8781  63.6978 0002279  50.5695 309.5490 15.30996371 13854
